# Made by eph2tle, compiled Nov 28 2023 12:03:22
# Run at Thu Dec  7 11:32:33 2023
#
#    The following TLEs (Two-Line Elements) were generated by fitting
# a numerically-integrated ephemeris,  based on the orbit given below,
# to the SDP4/SGP4 models.  Each TLE is good for the interval between
# its epoch and the epoch of the subsequent TLE (usually one day).
# The maximum deviation between the numerically integrated ephemerides
# and the TLE-based ephemeris, in kilometers,  is given for each TLE
# as the "worst residual".
#
#    This fitting is done using the 'eph2tle' code packaged with Find_Orb.
# The code has details on how the TLEs were computed :
#
#    https://github.com/Bill-Gray/find_orb/eph2tle.cpp
#
#    Be warned:  the error given is that between the numerically
# integrated ephems and the TLE model.  There will usually be at
# least some additional difference between the ephems and the actual
# motion of the satellite,  especially if the ephemerides are based
# on a short arc.  If the following orbital elements say something
# like "[based on] 10 observations 2015 Jan. 1-13",  and the TLEs
# are for 2015 May,  the extrapolation may be tenuous at best.  If
# your application requires a specific level of accuracy,  you may
# want to contact me;  I can give you some idea as to the fit of the
# underlying data (and possibly TLEs based on newer data).
#
#   You can usually find the underlying observational data,  and the
# fitted orbit,  residuals,  ephemerides,  and sometimes some comments
# about the object,  among the pages listed at
#
#    https://www.projectpluto.com/pluto/mpecs/pseudo.htm
#
#    Also,  if you use a TLE outside the "correct" time range (between
# its MJD and that of the next TLE),  all bets are off.  I've carefully
# computed and minimized the worst error over the "correct" time frame,
# but the ephemeris may (or may not) diverge wildly outside of it.
#
# Ephem range: 60257.000000 60676.000000 1.000000
# Created Thu Dec  7 11:32:26 2023
# Ephemeris start:  9 Nov 2023  0:00:00
# Ephemeris end:    1 Jan 2025  0:00:00
# Times are all TDT
# Positions/velocities are in ecliptic J2000
# Orbital elements:  2023-098C = NORAD 57770 = Chandrayaan-3 PM
#    Perigee 2023 Dec 5.3651 +/- 9.15e-5 TT;  Constraint: A=.015   Find_Orb
# Epoch 2023 Dec  5.0 TT; AMR 0.014846 +/- 5.81e-10 m^2/kg
# M 349.8341263 +/- 0.0036            (J2000 equator)
# n  27.8431124 +/- 0.00305           Peri.   86.2382 +/- 0.0052
# a232697.46 +/- 17                   Node    14.8560 +/- 0.00009
# e   0.329798 +/- 3.71e-5            Incl.   27.1531 +/- 0.000041
# P  12.9293d                H 30.67  G  0.15   U  8.9
# q 155954.14 +/- 2.85    Q 309440.78 +/- 31.2
# 19 of 42 observations 2023 Dec. 3-5; mean residual 0".383
#
# After 2023 Dec 05 :
#
# Orbital elements:  2023-098C = NORAD 57770 = Chandrayaan-3 PM
#    Perigee 2023 Dec 5.3645737 +/- 0.000251 TT =  8:44:59.16 (JD 2460283.8645737)
# Epoch 2023 Dec  5.0 TT; AMR 0.061712 +/- 0.0298 m^2/kg           l1e-6
# M 349.8524166817 +/- 0.0059         (J2000 equator)
# n  27.8341075068 +/- 0.00337        Peri.   86.1966705 +/- 0.014
# a232747.65067 +/- 18.8              Node    14.8682982 +/- 0.0014
# e   0.329883686 +/- 0.000115        Incl.   27.1560277 +/- 0.0009
# P  12.9335d                H 29.84  G  0.15   U  8.9
# q 155967.99756 +/- 15.6    Q 309527.30378 +/- 51.1
# 26 of 48 observations 2023 Dec. 3-16; mean residual 11".793
#
# After 2023 Dec 15 :
#
# Orbital elements:  2023-098C = NORAD 57770 = Chandrayaan-3 PM
#    Perigee 2023 Dec 17.89168 +/- 3.83e-5 TT = 21:24:01 (JD 2460296.39168)
# Epoch 2023 Dec 22.0 TT = JDT 2460300.5                           Find_Orb
# M 124.05548073 +/- 0.0012           (J2000 equator)
# n  30.19617058 +/- 7.01e-5          Peri.   85.80284 +/- 0.0020
# a220446.018 +/- 0.341               Node    15.52663 +/- 0.00037
# e   0.4268058 +/- 2.13e-5           Incl.   27.48085 +/- 0.00035
# P  11.9218d                H 28.79  G  0.15   U  6.3
# q 126358.373 +/- 4.79    Q 314533.663 +/- 4.52
# 21 of 67 observations 2023 Dec. 15-28; mean residual 4".066
#
# After 2023 Dec 25 :
#
# Orbital elements:  2023-098C = NORAD 57770 = Chandrayaan-3 PM
#    Perigee 2023 Dec 29.8254337 +/- 0.000101 TT = 19:48:37.47 (JD 2460308.3254337)
# Epoch 2023 Dec 28.0 TT = JDT 2460306.5                           Find_Orb
# M 303.6105572310 +/- 0.0032         (J2000 equator)
# n  30.8909839120 +/- 9.02e-5        Peri.   87.6596772 +/- 0.0045
# a217127.92332 +/- 0.423             Node    15.5042058 +/- 0.0014
# e   0.440801387 +/- 1.41e-5         Incl.   27.4867919 +/- 0.0013
# P  11.6537d                H 27.24  G  0.15   U  6.5
# q 121417.63345 +/- 3.08    Q 312838.21319 +/- 3.1
# 23 of 81 observations 2023 Dec. 17-2024 Jan. 21; mean residual 19".093
#
# After 2024 Jan 15 :
#
# Orbital elements:  2023-098C = NORAD 57770 = Chandrayaan-3 PM
#    Perigee 2024 Feb 2.9750021 +/- 2.69e-5 TT = 23:24:00.18 (JD 2460343.4750021)
# Epoch 2024 Feb  4.0 TT; AMR 0.026994 +/- 0.00206 m^2/kg          Find_Orb
# M  31.3487899972 +/- 0.0009         (J2000 equator)
# n  30.5842484549 +/- 0.000188       Peri.   88.8566431 +/- 0.0007
# a218577.25326 +/- 0.896             Node    14.7063393 +/- 0.00027
# e   0.414281184 +/- 3.95e-6         Incl.   27.5856698 +/- 0.00012
# P  11.7705d                H 28.30  G  0.15   U  7.0
# q 128024.80991 +/- 0.737    Q 309129.69661 +/- 1.87
# 29 of 103 observations 2024 Jan. 21-Feb. 16; mean residual 3".775
#
# After 2024 Feb 16 :
#
# Orbital elements:  2023-098C = NORAD 57770 = Chandrayaan-3 PM
#    Perihelion 2024 Jun 3.7469114 +/- 0.00738 TT = 17:55:33.14 (JD 2460465.2469114)
# Epoch 2024 Feb 23.0 TT = JDT 2460363.5   Earth MOID: 0.0000      Find_Orb
# M 257.2548096693 +/- 0.007          (J2000 ecliptic)
# n   1.0098113931 +/- 4.53e-6        Peri.  286.8205154 +/- 0.008
# a   0.9839564382 +/- 2.94e-6        Node   331.7832001 +/- 0.00018
# e   0.020011829 +/- 1.01e-6         Incl.    0.2481684 +/- 0.000010
# P   0.976/356.495d         H 29.11  G  0.15   U  4.5
# q 0.9642656700 +/- 3.85e-6    Q 1.0036472063 +/- 2.07e-6
# 31 of 128 observations 2024 Feb. 15-Mar. 2; mean residual 8".498
#
# After 2024 Mar 01 :
#
# Orbital elements:  2023-098C = NORAD 57770 = Chandrayaan-3 PM
#    Perigee 2024 Mar 2.660278 +/- 0.000711 TT = 15:50:48.0 (JD 2460372.160278)
# Epoch 2024 Mar  2.0 TT = JDT 2460371.5                           Find_Orb
# M 344.453539568 +/- 0.016           (J2000 equator)
# n  23.545327624 +/- 0.000326        Peri.   83.159445 +/- 0.022
# a260215.8108 +/- 2.4                Node    12.809884 +/- 0.0017
# e   0.15052055 +/- 4.13e-5          Incl.   28.805630 +/- 0.0012
# P  15.2894d                H 29.55  G  0.15   U  7.4
# q 221047.9820 +/- 8.91    Q 299383.6395 +/- 13.3
# 40 of 156 observations 2024 Feb. 19-Mar. 22; mean residual 15".437
#
# After 2024 Mar 20 :
#
# Orbital elements:  2023-098C = NORAD 57770 = Chandrayaan-3 PM
#    Perigee 2024 Apr 15.4579385 +/- 0.000369 TT = 10:59:25.88 (JD 2460415.9579385)
# Epoch 2024 Apr 14.0 TT = JDT 2460414.5                           Find_Orb
# M 324.2045622250 +/- 0.009          (J2000 equator)
# n  24.5520911777 +/- 0.000142       Peri.   48.8688635 +/- 0.009
# a253052.81957 +/- 0.975             Node    12.7982768 +/- 0.0031
# e   0.205632111 +/- 3.71e-5         Incl.   29.2147108 +/- 0.0016
# P  14.6624d                H 28.69  G  0.15   U  6.8
# q 201017.03385 +/- 9.28    Q 305088.60530 +/- 9.69
# 53 of 185 observations 2024 Mar. 18-May 10; mean residual 33".877
#
# After 2024 May 05 :
#
# Orbital elements:  2023-098C = NORAD 57770 = Chandrayaan-3 PM
#    Perigee 2024 May 27.0060700 +/- 0.0005 TT =  0:08:44.44 (JD 2460457.5060700)
# Epoch 2024 May 22.0 TT; AMR -0.024798 +/- 0.00895 m^2/kg         Find_Orb
# M 220.6655057737 +/- 0.012          (J2000 equator)
# n  27.8331096319 +/- 0.00036        Peri.   46.7222426 +/- 0.007
# a232753.21363 +/- 2.01              Node    12.9424240 +/- 0.0044
# e   0.390117191 +/- 4.39e-5         Incl.   30.2520662 +/- 0.0029
# P  12.9340d                H 28.29  G  0.15   U  7.4
# q 141952.18368 +/- 9.91    Q 323554.24357 +/- 11.4
# 32 of 77 observations 2024 May 1-June 11; mean residual 42".112
#
# After 2024 Jun 10 :
#
# Orbital elements:  2023-098C = NORAD 57770 = Chandrayaan-3 PM
#    Perigee 2024 Jun 8.6793656 +/- 0.000287 TT = 16:18:17.18 (JD 2460470.1793656)
# Epoch 2024 Jun 10.0 TT = JDT 2460471.5                           Find_Orb
# M  38.3478729684 +/- 0.008          (J2000 equator)
# n  29.0374625368 +/- 0.000318       Peri.   51.2352461 +/- 0.0057
# a226272.12970 +/- 1.65              Node    12.9224107 +/- 0.0025
# e   0.425809377 +/- 2.34e-5         Incl.   30.3063995 +/- 0.0017
# P  12.3975d                H 29.45  G  0.15   U  7.3
# q 129923.33510 +/- 6.02    Q 322620.92430 +/- 3.95
# 27 of 212 observations 2024 May 18-June 18; mean residual 19".744
#
# After 2024 Jun 18 :
#
# Orbital elements:  2023-098C = NORAD 57770 = Chandrayaan-3 PM
#    Perigee 2024 Jun 20.846013 +/- 0.000144 TT = 20:18:15.5 (JD 2460482.346013)
# Epoch 2024 Jun 26.0 TT = JDT 2460487.5                           Find_Orb
# M 153.092175071 +/- 0.0037          (J2000 equator)
# n  29.703639268 +/- 0.000264        Peri.   48.597492 +/- 0.0027
# a222876.2189 +/- 1.32               Node    12.770465 +/- 0.0013
# e   0.42696887 +/- 1.21e-5          Incl.   30.318224 +/- 0.0009
# P  12.1195d                H 28.85  G  0.15   U  7.2
# q 127715.0095 +/- 2.39    Q 318037.4284 +/- 4.03
# 30 of 50 observations 2024 June 18-July 2; mean residual 16".397
#
# After 2024 Jul 02 :
#
# Orbital elements:  2023-098C = NORAD 57770 = Chandrayaan-3 PM
#    Perigee 2024 Jul 2.937318 +/- 0.000187 TT = 22:29:44.2 (JD 2460494.437318)
# Epoch 2024 Jul  7.0 TT = JDT 2460498.5                           Find_Orb
# M 122.227038078 +/- 0.0052          (J2000 equator)
# n  30.085304035 +/- 0.000163        Peri.   48.932885 +/- 0.0035
# a220987.2595 +/- 0.799              Node    12.689372 +/- 0.0023
# e   0.42846826 +/- 2.68e-5          Incl.   30.322408 +/- 0.0016
# P  11.9657d                H 28.44  G  0.15   U  6.9
# q 126301.2315 +/- 6.11    Q 315673.2876 +/- 5.61
# 45 of 76 observations 2024 June 25-Aug. 8; mean residual 27".875
#
# Elements after  3 Aug 2024 :
#
# Orbital elements:  2023-098C = NORAD 57770 = Chandrayaan-3 PM
#    Perigee 2024 Sep 20.3849 +/- 0.00019 TT =  9:14:13 (JD 2460573.8849)
# Epoch 2024 Sep 14.0 TT = JDT 2460567.5                           Find_Orb
# M 202.5996172 +/- 0.0039            (J2000 equator)
# n  24.6520438 +/- 0.000142          Peri.   31.3088 +/- 0.0030
# a252368.34 +/- 0.969                Node     9.9942 +/- 0.0013
# e   0.169559 +/- 1.82e-5            Incl.   31.0184 +/- 0.0008
# P  14.6030d                H 27.27  G  0.15   U  6.8
# q 209576.98 +/- 4.19    Q 295159.71 +/- 5.33
# 35 of 38 observations 2024 Aug. 1-Sept. 22; mean residual 24".317
#
# Elements after 15 Sep 2024 :
#
#    Perigee 2024 Oct 4.219247 +/- 0.000195 TT =  5:15:42.9 (JD 2460587.719247)
# Epoch 2024 Sep 27.0 TT; AMR 0.038342 +/- 0.00227 m^2/kg          Find_Orb
# M 184.870336383 +/- 0.0045          (J2000 equator)
# n  24.258716075 +/- 7.27e-5         Peri.  358.834231 +/- 0.0052
# a255088.9415 +/- 0.51               Node     9.839116 +/- 0.0019
# e   0.16358178 +/- 1.29e-5          Incl.   31.360750 +/- 0.0006
# P  14.8397d                H 27.05  G  0.15   U  6.3
# q 213361.0363 +/- 3.37    Q 296816.8468 +/- 3.24
# 28 of 67 observations 2024 Sept. 4-Oct. 19; mean residual 17".156
#
# Elements after 12 Oct 2024 :
#
#    Perigee 2024 Oct 18.980249 +/- 0.000395 TT = 23:31:33.5 (JD 2460602.480249)
# Epoch 2024 Oct 13.0 TT = JDT 2460596.5                           Find_Orb
# M 214.541625841 +/- 0.010           (J2000 equator)
# n  24.323128514 +/- 0.000195        Peri.  354.339487 +/- 0.010
# a254638.3920 +/- 1.36               Node     9.811137 +/- 0.0026
# e   0.17934239 +/- 2.76e-5          Incl.   31.464680 +/- 0.0013
# P  14.8004d                H 28.40  G  0.15   U  7.0
# q 208970.9322 +/- 7.15    Q 300305.8518 +/- 7.18
# 22 of 310 observations 2024 Oct. 6-Nov. 6; mean residual 27".661
#
# 1 NoradU COSPAR   Epoch.epoch     dn/dt/2  d2n/dt2/6 BSTAR    T El# C
# 2 NoradU Inclina RAAscNode Eccent  ArgPeri MeanAno  MeanMotion Rev# C

